{
  "norad_id": 57331,
  "name": "STARLINK-6234",
  "history": [
    {
      "epoch": "2026-03-28T22:00:01.999584Z",
      "apogee_km": 502.03479092989164,
      "perigee_km": 499.79648478258514,
      "latitude_deg": -42.777873519481574,
      "longitude_deg": -93.57590253211902,
      "height_km": 513.0090289946758,
      "semi_major_axis_km": 6879.052637856238,
      "eccentricity": 0.00016269,
      "inclination_deg": 43.0001,
      "raan_deg": 143.4399,
      "arg_perigee_deg": 267.0763,
      "mean_anomaly_deg": 9.7799,
      "mean_motion_rev_day": 15.21632631
    },
    {
      "epoch": "2026-03-29T04:00:01.999584Z",
      "apogee_km": 500.7796069264741,
      "perigee_km": 499.31592920782987,
      "latitude_deg": -18.605377248332406,
      "longitude_deg": 96.49811660033102,
      "height_km": 503.76210880980267,
      "semi_major_axis_km": 6878.184768067152,
      "eccentricity": 0.0001064,
      "inclination_deg": 42.9997,
      "raan_deg": 142.0432,
      "arg_perigee_deg": 275.6858,
      "mean_anomaly_deg": 291.9826,
      "mean_motion_rev_day": 15.21920633
    },
    {
      "epoch": "2026-03-30T04:00:01.999584Z",
      "apogee_km": 499.3200289246124,
      "perigee_km": 496.6833047914197,
      "latitude_deg": -38.81615488760189,
      "longitude_deg": -170.21190735604694,
      "height_km": 508.39577827884665,
      "semi_major_axis_km": 6876.138666858015,
      "eccentricity": 0.00019173,
      "inclination_deg": 42.9999,
      "raan_deg": 136.4467,
      "arg_perigee_deg": 266.0062,
      "mean_anomaly_deg": 27.6762,
      "mean_motion_rev_day": 15.2259999
    },
    {
      "epoch": "2026-03-30T14:00:03.000384Z",
      "apogee_km": 497.8555557684249,
      "perigee_km": 495.47577407793506,
      "latitude_deg": 36.64672770697573,
      "longitude_deg": 148.62816278300022,
      "height_km": 498.95473915217843,
      "semi_major_axis_km": 6874.80266492318,
      "eccentricity": 0.00017308,
      "inclination_deg": 42.9999,
      "raan_deg": 134.1119,
      "arg_perigee_deg": 305.4174,
      "mean_anomaly_deg": 115.2966,
      "mean_motion_rev_day": 15.23043849
    },
    {
      "epoch": "2026-03-30T22:00:00.999936Z",
      "apogee_km": 496.4471311501575,
      "perigee_km": 494.5057477703158,
      "latitude_deg": 43.154218969592776,
      "longitude_deg": 64.84623419357955,
      "height_km": 499.5364997679275,
      "semi_major_axis_km": 6873.613439460237,
      "eccentricity": 0.00014122,
      "inclination_deg": 42.9998,
      "raan_deg": 132.2386,
      "arg_perigee_deg": 291.6828,
      "mean_anomaly_deg": 158.9787,
      "mean_motion_rev_day": 15.23439126
    },
    {
      "epoch": "2026-03-31T20:00:01.999008Z",
      "apogee_km": 493.3424981391008,
      "perigee_km": 491.4008923818201,
      "latitude_deg": 43.00973926898112,
      "longitude_deg": 82.05195340541452,
      "height_km": 496.33544433083324,
      "semi_major_axis_km": 6870.508695260461,
      "eccentricity": 0.0001413,
      "inclination_deg": 42.9996,
      "raan_deg": 127.0904,
      "arg_perigee_deg": 295.524,
      "mean_anomaly_deg": 150.2054,
      "mean_motion_rev_day": 15.24471893
    }
  ]
}